CCSDS_OMM_VERS = 2.0
CREATION_DATE  = 
ORIGINATOR     = 

OBJECT_NAME    = HULIANWANG DIGUI-148
OBJECT_ID      = 2026-013C
CENTER_NAME    = EARTH
REF_FRAME      = TEME
TIME_SYSTEM    = UTC
MEAN_ELEMENT_THEORY = SGP/SGP4

EPOCH          = 2026-02-05T01:22:59.536992
MEAN_MOTION    = 13.88386291
ECCENTRICITY   = .0000079
INCLINATION    = 50.0091
RA_OF_ASC_NODE = 117.9773
ARG_OF_PERICENTER = 234.4126
MEAN_ANOMALY   = 125.6764

EPHEMERIS_TYPE = 0
CLASSIFICATION_TYPE = U
NORAD_CAT_ID   = 67524
ELEMENT_SET_NO = 999
REV_AT_EPOCH   = 234
BSTAR          = .16113602E-3
MEAN_MOTION_DOT = .49E-6
MEAN_MOTION_DDOT = 0

CCSDS_OMM_VERS = 2.0
CREATION_DATE  = 
ORIGINATOR     = 

OBJECT_NAME    = HULIANWANG DIGUI-149
OBJECT_ID      = 2026-013D
CENTER_NAME    = EARTH
REF_FRAME      = TEME
TIME_SYSTEM    = UTC
MEAN_ELEMENT_THEORY = SGP/SGP4

EPOCH          = 2026-02-05T01:20:27.799584
MEAN_MOTION    = 13.88682352
ECCENTRICITY   = .00004359
INCLINATION    = 50.0085
RA_OF_ASC_NODE = 117.9662
ARG_OF_PERICENTER = 58.1376
MEAN_ANOMALY   = 301.9564

EPHEMERIS_TYPE = 0
CLASSIFICATION_TYPE = U
NORAD_CAT_ID   = 67525
ELEMENT_SET_NO = 999
REV_AT_EPOCH   = 234
BSTAR          = .15185263E-3
MEAN_MOTION_DOT = .38E-6
MEAN_MOTION_DDOT = 0

CCSDS_OMM_VERS = 2.0
CREATION_DATE  = 
ORIGINATOR     = 

OBJECT_NAME    = HULIANWANG DIGUI-150
OBJECT_ID      = 2026-013E
CENTER_NAME    = EARTH
REF_FRAME      = TEME
TIME_SYSTEM    = UTC
MEAN_ELEMENT_THEORY = SGP/SGP4

EPOCH          = 2026-02-05T01:13:02.209728
MEAN_MOTION    = 13.89109869
ECCENTRICITY   = .00004209
INCLINATION    = 50.0058
RA_OF_ASC_NODE = 117.9254
ARG_OF_PERICENTER = 330.5507
MEAN_ANOMALY   = 29.5368

EPHEMERIS_TYPE = 0
CLASSIFICATION_TYPE = U
NORAD_CAT_ID   = 67526
ELEMENT_SET_NO = 999
REV_AT_EPOCH   = 236
BSTAR          = .1485097E-3
MEAN_MOTION_DOT = .35E-6
MEAN_MOTION_DDOT = 0

CCSDS_OMM_VERS = 2.0
CREATION_DATE  = 
ORIGINATOR     = 

OBJECT_NAME    = HULIANWANG DIGUI-151
OBJECT_ID      = 2026-013F
CENTER_NAME    = EARTH
REF_FRAME      = TEME
TIME_SYSTEM    = UTC
MEAN_ELEMENT_THEORY = SGP/SGP4

EPOCH          = 2026-02-05T01:16:43.313376
MEAN_MOTION    = 13.88896439
ECCENTRICITY   = .00003847
INCLINATION    = 50.0094
RA_OF_ASC_NODE = 117.9543
ARG_OF_PERICENTER = 154.5290
MEAN_ANOMALY   = 205.5627

EPHEMERIS_TYPE = 0
CLASSIFICATION_TYPE = U
NORAD_CAT_ID   = 67527
ELEMENT_SET_NO = 999
REV_AT_EPOCH   = 234
BSTAR          = .13489384E-3
MEAN_MOTION_DOT = .18E-6
MEAN_MOTION_DDOT = 0

CCSDS_OMM_VERS = 2.0
CREATION_DATE  = 
ORIGINATOR     = 

OBJECT_NAME    = HULIANWANG DIGUI-152
OBJECT_ID      = 2026-013G
CENTER_NAME    = EARTH
REF_FRAME      = TEME
TIME_SYSTEM    = UTC
MEAN_ELEMENT_THEORY = SGP/SGP4

EPOCH          = 2026-02-04T23:27:58.817376
MEAN_MOTION    = 13.89308675
ECCENTRICITY   = .00006667
INCLINATION    = 50.0033
RA_OF_ASC_NODE = 118.2044
ARG_OF_PERICENTER = 45.5177
MEAN_ANOMALY   = 314.5775

EPHEMERIS_TYPE = 0
CLASSIFICATION_TYPE = U
NORAD_CAT_ID   = 67528
ELEMENT_SET_NO = 999
REV_AT_EPOCH   = 233
BSTAR          = .1650472E-3
MEAN_MOTION_DOT = .56E-6
MEAN_MOTION_DDOT = 0

CCSDS_OMM_VERS = 2.0
CREATION_DATE  = 
ORIGINATOR     = 

OBJECT_NAME    = HULIANWANG DIGUI-153
OBJECT_ID      = 2026-013H
CENTER_NAME    = EARTH
REF_FRAME      = TEME
TIME_SYSTEM    = UTC
MEAN_ELEMENT_THEORY = SGP/SGP4

EPOCH          = 2026-02-05T02:49:39.985824
MEAN_MOTION    = 13.89820276
ECCENTRICITY   = .00009233
INCLINATION    = 50.0050
RA_OF_ASC_NODE = 117.6095
ARG_OF_PERICENTER = 199.0644
MEAN_ANOMALY   = 161.0220

EPHEMERIS_TYPE = 0
CLASSIFICATION_TYPE = U
NORAD_CAT_ID   = 67529
ELEMENT_SET_NO = 999
REV_AT_EPOCH   = 234
BSTAR          = .4154182E-4
MEAN_MOTION_DOT = -.95E-6
MEAN_MOTION_DDOT = 0

CCSDS_OMM_VERS = 2.0
CREATION_DATE  = 
ORIGINATOR     = 

OBJECT_NAME    = HULIANWANG DIGUI-154
OBJECT_ID      = 2026-013J
CENTER_NAME    = EARTH
REF_FRAME      = TEME
TIME_SYSTEM    = UTC
MEAN_ELEMENT_THEORY = SGP/SGP4

EPOCH          = 2026-02-05T02:46:46.074720
MEAN_MOTION    = 13.89993841
ECCENTRICITY   = .00009251
INCLINATION    = 50.0070
RA_OF_ASC_NODE = 117.6065
ARG_OF_PERICENTER = 187.7624
MEAN_ANOMALY   = 172.3260

EPHEMERIS_TYPE = 0
CLASSIFICATION_TYPE = U
NORAD_CAT_ID   = 67530
ELEMENT_SET_NO = 999
REV_AT_EPOCH   = 234
BSTAR          = .23246983E-3
MEAN_MOTION_DOT = .142E-5
MEAN_MOTION_DDOT = 0

CCSDS_OMM_VERS = 2.0
CREATION_DATE  = 
ORIGINATOR     = 

OBJECT_NAME    = CZ-12 R/B
OBJECT_ID      = 2026-013K
CENTER_NAME    = EARTH
REF_FRAME      = TEME
TIME_SYSTEM    = UTC
MEAN_ELEMENT_THEORY = SGP/SGP4

EPOCH          = 2026-02-05T11:12:16.579584
MEAN_MOTION    = 14.14457366
ECCENTRICITY   = .0068783
INCLINATION    = 49.9927
RA_OF_ASC_NODE = 114.1265
ARG_OF_PERICENTER = 186.9061
MEAN_ANOMALY   = 173.0906

EPHEMERIS_TYPE = 0
CLASSIFICATION_TYPE = U
NORAD_CAT_ID   = 67531
ELEMENT_SET_NO = 999
REV_AT_EPOCH   = 242
BSTAR          = .24097E-3
MEAN_MOTION_DOT = .32E-5
MEAN_MOTION_DDOT = 0

CCSDS_OMM_VERS = 2.0
CREATION_DATE  = 
ORIGINATOR     = 

OBJECT_NAME    = STARLINK-36587
OBJECT_ID      = 2026-014A
CENTER_NAME    = EARTH
REF_FRAME      = TEME
TIME_SYSTEM    = UTC
MEAN_ELEMENT_THEORY = SGP/SGP4

EPOCH          = 2026-02-05T12:00:01.999296
MEAN_MOTION    = 15.80725809
ECCENTRICITY   = .0001595
INCLINATION    = 97.2835
RA_OF_ASC_NODE = 279.7646
ARG_OF_PERICENTER = 77.4270
MEAN_ANOMALY   = 175.5475

EPHEMERIS_TYPE = 0
CLASSIFICATION_TYPE = U
NORAD_CAT_ID   = 67532
ELEMENT_SET_NO = 999
REV_AT_EPOCH   = 351
BSTAR          = .66053E-3
MEAN_MOTION_DOT = .127723E-2
MEAN_MOTION_DDOT = 0

CCSDS_OMM_VERS = 2.0
CREATION_DATE  = 
ORIGINATOR     = 

OBJECT_NAME    = STARLINK-36417
OBJECT_ID      = 2026-014B
CENTER_NAME    = EARTH
REF_FRAME      = TEME
TIME_SYSTEM    = UTC
MEAN_ELEMENT_THEORY = SGP/SGP4

EPOCH          = 2026-02-05T12:00:01.999296
MEAN_MOTION    = 15.78411289
ECCENTRICITY   = .0001808
INCLINATION    = 97.2835
RA_OF_ASC_NODE = 279.7628
ARG_OF_PERICENTER = 84.3917
MEAN_ANOMALY   = 168.9565

EPHEMERIS_TYPE = 0
CLASSIFICATION_TYPE = U
NORAD_CAT_ID   = 67533
ELEMENT_SET_NO = 999
REV_AT_EPOCH   = 351
BSTAR          = -.1249E-1
MEAN_MOTION_DOT = -.1877108E-1
MEAN_MOTION_DDOT = 0

CCSDS_OMM_VERS = 2.0
CREATION_DATE  = 
ORIGINATOR     = 

OBJECT_NAME    = STARLINK-36576
OBJECT_ID      = 2026-014C
CENTER_NAME    = EARTH
REF_FRAME      = TEME
TIME_SYSTEM    = UTC
MEAN_ELEMENT_THEORY = SGP/SGP4

EPOCH          = 2026-02-05T12:00:01.999296
MEAN_MOTION    = 15.80801709
ECCENTRICITY   = .0001412
INCLINATION    = 97.2831
RA_OF_ASC_NODE = 279.7666
ARG_OF_PERICENTER = 86.8135
MEAN_ANOMALY   = 174.0542

EPHEMERIS_TYPE = 0
CLASSIFICATION_TYPE = U
NORAD_CAT_ID   = 67534
ELEMENT_SET_NO = 999
REV_AT_EPOCH   = 351
BSTAR          = -.20347E-3
MEAN_MOTION_DOT = -.38917E-3
MEAN_MOTION_DDOT = 0

CCSDS_OMM_VERS = 2.0
CREATION_DATE  = 
ORIGINATOR     = 

OBJECT_NAME    = STARLINK-36574
OBJECT_ID      = 2026-014D
CENTER_NAME    = EARTH
REF_FRAME      = TEME
TIME_SYSTEM    = UTC
MEAN_ELEMENT_THEORY = SGP/SGP4

EPOCH          = 2026-02-05T12:00:01.999296
MEAN_MOTION    = 15.80818550
ECCENTRICITY   = .0001302
INCLINATION    = 97.2817
RA_OF_ASC_NODE = 279.7696
ARG_OF_PERICENTER = 91.8442
MEAN_ANOMALY   = 176.2820

EPHEMERIS_TYPE = 0
CLASSIFICATION_TYPE = U
NORAD_CAT_ID   = 67535
ELEMENT_SET_NO = 999
REV_AT_EPOCH   = 351
BSTAR          = .18138E-3
MEAN_MOTION_DOT = .34744E-3
MEAN_MOTION_DDOT = 0

