HULIANWANG DIGUI-148    
1 67524U 26013C   26036.05763353  .00000049  00000+0  16114-3 0  9993
2 67524  50.0091 117.9773 0000079 234.4126 125.6764 13.88386291  2343
HULIANWANG DIGUI-149    
1 67525U 26013D   26036.05587731  .00000038  00000+0  15185-3 0  9993
2 67525  50.0085 117.9662 0000435  58.1376 301.9564 13.88682352  2342
HULIANWANG DIGUI-150    
1 67526U 26013E   26036.05072002  .00000035  00000+0  14851-3 0  9990
2 67526  50.0058 117.9254 0000420 330.5507  29.5368 13.89109869  2362
HULIANWANG DIGUI-151    
1 67527U 26013F   26036.05327909  .00000018  00000+0  13489-3 0  9997
2 67527  50.0094 117.9543 0000384 154.5290 205.5627 13.88896439  2343
HULIANWANG DIGUI-152    
1 67528U 26013G   26035.97776409  .00000056  00000+0  16505-3 0  9995
2 67528  50.0033 118.2044 0000666  45.5177 314.5775 13.89308675  2338
HULIANWANG DIGUI-153    
1 67529U 26013H   26036.11782391 -.00000095  00000+0  41542-4 0  9994
2 67529  50.0050 117.6095 0000923 199.0644 161.0220 13.89820276  2344
HULIANWANG DIGUI-154    
1 67530U 26013J   26036.11581105  .00000142  00000+0  23247-3 0  9999
2 67530  50.0070 117.6065 0000925 187.7624 172.3260 13.89993841  2347
CZ-12 R/B               
1 67531U 26013K   26036.46685856  .00000320  00000+0  24097-3 0  9998
2 67531  49.9927 114.1265 0068783 186.9061 173.0906 14.14457366  2422
STARLINK-36587          
1 67532U 26014A   26036.50002314  .00127723  00000+0  66053-3 0  9992
2 67532  97.2835 279.7646 0001595  77.4270 175.5475 15.80725809  3515
STARLINK-36417          
1 67533U 26014B   26036.50002314 -.01877108  00000+0 -12490-1 0  9999
2 67533  97.2835 279.7628 0001808  84.3917 168.9565 15.78411289  3515
STARLINK-36576          
1 67534U 26014C   26036.50002314 -.00038917  00000+0 -20347-3 0  9998
2 67534  97.2831 279.7666 0001412  86.8135 174.0542 15.80801709  3510
STARLINK-36574          
1 67535U 26014D   26036.50002314  .00034744  00000+0  18138-3 0  9996
2 67535  97.2817 279.7696 0001302  91.8442 176.2820 15.80818550  3518
